CCSDS_OMM_VERS = 2.0
CREATION_DATE  = 
ORIGINATOR     = 

OBJECT_NAME    = STARLINK-36489
OBJECT_ID      = 2026-002Z
CENTER_NAME    = EARTH
REF_FRAME      = TEME
TIME_SYSTEM    = UTC
MEAN_ELEMENT_THEORY = SGP/SGP4

EPOCH          = 2026-01-31T06:00:02.999808
MEAN_MOTION    = 15.50591991
ECCENTRICITY   = .00016122
INCLINATION    = 42.9992
RA_OF_ASC_NODE = 177.9281
ARG_OF_PERICENTER = 266.2856
MEAN_ANOMALY   = 282.6704

EPHEMERIS_TYPE = 0
CLASSIFICATION_TYPE = U
NORAD_CAT_ID   = 67328
ELEMENT_SET_NO = 999
REV_AT_EPOCH   = 555
BSTAR          = -.81550966E-3
MEAN_MOTION_DOT = -.47914E-3
MEAN_MOTION_DDOT = 0

CCSDS_OMM_VERS = 2.0
CREATION_DATE  = 
ORIGINATOR     = 

OBJECT_NAME    = STARLINK-36496
OBJECT_ID      = 2026-002AA
CENTER_NAME    = EARTH
REF_FRAME      = TEME
TIME_SYSTEM    = UTC
MEAN_ELEMENT_THEORY = SGP/SGP4

EPOCH          = 2026-01-31T06:00:02.999808
MEAN_MOTION    = 15.50523238
ECCENTRICITY   = .00022232
INCLINATION    = 42.9993
RA_OF_ASC_NODE = 177.9171
ARG_OF_PERICENTER = 273.6944
MEAN_ANOMALY   = 279.1219

EPHEMERIS_TYPE = 0
CLASSIFICATION_TYPE = U
NORAD_CAT_ID   = 67329
ELEMENT_SET_NO = 999
REV_AT_EPOCH   = 538
BSTAR          = .11224407E-2
MEAN_MOTION_DOT = .65934E-3
MEAN_MOTION_DDOT = 0

CCSDS_OMM_VERS = 2.0
CREATION_DATE  = 
ORIGINATOR     = 

OBJECT_NAME    = STARLINK-36483
OBJECT_ID      = 2026-002AB
CENTER_NAME    = EARTH
REF_FRAME      = TEME
TIME_SYSTEM    = UTC
MEAN_ELEMENT_THEORY = SGP/SGP4

EPOCH          = 2026-01-31T06:00:02.999808
MEAN_MOTION    = 15.50515602
ECCENTRICITY   = .00016723
INCLINATION    = 42.9994
RA_OF_ASC_NODE = 177.9081
ARG_OF_PERICENTER = 264.0450
MEAN_ANOMALY   = 292.6077

EPHEMERIS_TYPE = 0
CLASSIFICATION_TYPE = U
NORAD_CAT_ID   = 67330
ELEMENT_SET_NO = 999
REV_AT_EPOCH   = 555
BSTAR          = .13750214E-2
MEAN_MOTION_DOT = .8098E-3
MEAN_MOTION_DDOT = 0

CCSDS_OMM_VERS = 2.0
CREATION_DATE  = 
ORIGINATOR     = 

OBJECT_NAME    = STARLINK-36494
OBJECT_ID      = 2026-002AC
CENTER_NAME    = EARTH
REF_FRAME      = TEME
TIME_SYSTEM    = UTC
MEAN_ELEMENT_THEORY = SGP/SGP4

EPOCH          = 2026-01-31T06:00:02.999808
MEAN_MOTION    = 15.50548031
ECCENTRICITY   = .0002279
INCLINATION    = 42.9994
RA_OF_ASC_NODE = 177.9221
ARG_OF_PERICENTER = 279.9971
MEAN_ANOMALY   = 270.7876

EPHEMERIS_TYPE = 0
CLASSIFICATION_TYPE = U
NORAD_CAT_ID   = 67331
ELEMENT_SET_NO = 999
REV_AT_EPOCH   = 555
BSTAR          = .11641537E-2
MEAN_MOTION_DOT = .6848E-3
MEAN_MOTION_DDOT = 0

CCSDS_OMM_VERS = 2.0
CREATION_DATE  = 
ORIGINATOR     = 

OBJECT_NAME    = STARLINK-36492
OBJECT_ID      = 2026-002AD
CENTER_NAME    = EARTH
REF_FRAME      = TEME
TIME_SYSTEM    = UTC
MEAN_ELEMENT_THEORY = SGP/SGP4

EPOCH          = 2026-01-31T06:00:02.999808
MEAN_MOTION    = 15.50515908
ECCENTRICITY   = .00015982
INCLINATION    = 42.9992
RA_OF_ASC_NODE = 177.9133
ARG_OF_PERICENTER = 265.3780
MEAN_ANOMALY   = 289.3625

EPHEMERIS_TYPE = 0
CLASSIFICATION_TYPE = U
NORAD_CAT_ID   = 67332
ELEMENT_SET_NO = 999
REV_AT_EPOCH   = 555
BSTAR          = .13273401E-2
MEAN_MOTION_DOT = .78132E-3
MEAN_MOTION_DDOT = 0

CCSDS_OMM_VERS = 2.0
CREATION_DATE  = 
ORIGINATOR     = 

OBJECT_NAME    = STARLINK-36427
OBJECT_ID      = 2026-002AE
CENTER_NAME    = EARTH
REF_FRAME      = TEME
TIME_SYSTEM    = UTC
MEAN_ELEMENT_THEORY = SGP/SGP4

EPOCH          = 2026-01-31T06:00:02.999808
MEAN_MOTION    = 15.40680006
ECCENTRICITY   = .00014579
INCLINATION    = 43.0004
RA_OF_ASC_NODE = 178.0794
ARG_OF_PERICENTER = 282.0817
MEAN_ANOMALY   = 196.5239

EPHEMERIS_TYPE = 0
CLASSIFICATION_TYPE = U
NORAD_CAT_ID   = 67333
ELEMENT_SET_NO = 999
REV_AT_EPOCH   = 546
BSTAR          = .11906166E-2
MEAN_MOTION_DOT = .49723E-3
MEAN_MOTION_DDOT = 0

CCSDS_OMM_VERS = 2.0
CREATION_DATE  = 
ORIGINATOR     = 

OBJECT_NAME    = STARLINK-35343
OBJECT_ID      = 2026-003A
CENTER_NAME    = EARTH
REF_FRAME      = TEME
TIME_SYSTEM    = UTC
MEAN_ELEMENT_THEORY = SGP/SGP4

EPOCH          = 2026-01-31T06:00:02.999808
MEAN_MOTION    = 15.55691876
ECCENTRICITY   = .00012582
INCLINATION    = 42.9997
RA_OF_ASC_NODE = 80.5447
ARG_OF_PERICENTER = 276.6699
MEAN_ANOMALY   = 117.6751

EPHEMERIS_TYPE = 0
CLASSIFICATION_TYPE = U
NORAD_CAT_ID   = 67334
ELEMENT_SET_NO = 999
REV_AT_EPOCH   = 459
BSTAR          = -.33401176E-1
MEAN_MOTION_DOT = -.2098785E-1
MEAN_MOTION_DDOT = 0

CCSDS_OMM_VERS = 2.0
CREATION_DATE  = 
ORIGINATOR     = 

OBJECT_NAME    = STARLINK-36486
OBJECT_ID      = 2026-003B
CENTER_NAME    = EARTH
REF_FRAME      = TEME
TIME_SYSTEM    = UTC
MEAN_ELEMENT_THEORY = SGP/SGP4

EPOCH          = 2026-01-31T06:00:02.999808
MEAN_MOTION    = 15.55686906
ECCENTRICITY   = .00013458
INCLINATION    = 42.9994
RA_OF_ASC_NODE = 80.5398
ARG_OF_PERICENTER = 279.1709
MEAN_ANOMALY   = 117.0947

EPHEMERIS_TYPE = 0
CLASSIFICATION_TYPE = U
NORAD_CAT_ID   = 67335
ELEMENT_SET_NO = 999
REV_AT_EPOCH   = 465
BSTAR          = -.33318135E-1
MEAN_MOTION_DOT = -.2093853E-1
MEAN_MOTION_DDOT = 0

CCSDS_OMM_VERS = 2.0
CREATION_DATE  = 
ORIGINATOR     = 

OBJECT_NAME    = STARLINK-36480
OBJECT_ID      = 2026-003C
CENTER_NAME    = EARTH
REF_FRAME      = TEME
TIME_SYSTEM    = UTC
MEAN_ELEMENT_THEORY = SGP/SGP4

EPOCH          = 2026-01-31T06:00:02.999808
MEAN_MOTION    = 15.55689743
ECCENTRICITY   = .00012598
INCLINATION    = 42.9997
RA_OF_ASC_NODE = 80.5352
ARG_OF_PERICENTER = 277.5674
MEAN_ANOMALY   = 120.6152

EPHEMERIS_TYPE = 0
CLASSIFICATION_TYPE = U
NORAD_CAT_ID   = 67336
ELEMENT_SET_NO = 999
REV_AT_EPOCH   = 465
BSTAR          = -.33400079E-1
MEAN_MOTION_DOT = -.2098576E-1
MEAN_MOTION_DDOT = 0

CCSDS_OMM_VERS = 2.0
CREATION_DATE  = 
ORIGINATOR     = 

OBJECT_NAME    = STARLINK-36410
OBJECT_ID      = 2026-003D
CENTER_NAME    = EARTH
REF_FRAME      = TEME
TIME_SYSTEM    = UTC
MEAN_ELEMENT_THEORY = SGP/SGP4

EPOCH          = 2026-01-31T06:00:02.999808
MEAN_MOTION    = 15.55691455
ECCENTRICITY   = .00012963
INCLINATION    = 43.0000
RA_OF_ASC_NODE = 80.5303
ARG_OF_PERICENTER = 276.5122
MEAN_ANOMALY   = 123.5857

EPHEMERIS_TYPE = 0
CLASSIFICATION_TYPE = U
NORAD_CAT_ID   = 67337
ELEMENT_SET_NO = 999
REV_AT_EPOCH   = 465
BSTAR          = -.33414867E-1
MEAN_MOTION_DOT = -.2099546E-1
MEAN_MOTION_DDOT = 0

CCSDS_OMM_VERS = 2.0
CREATION_DATE  = 
ORIGINATOR     = 

OBJECT_NAME    = STARLINK-36413
OBJECT_ID      = 2026-003E
CENTER_NAME    = EARTH
REF_FRAME      = TEME
TIME_SYSTEM    = UTC
MEAN_ELEMENT_THEORY = SGP/SGP4

EPOCH          = 2026-01-31T06:00:02.999808
MEAN_MOTION    = 15.55686013
ECCENTRICITY   = .00012323
INCLINATION    = 42.9999
RA_OF_ASC_NODE = 80.5252
ARG_OF_PERICENTER = 273.6054
MEAN_ANOMALY   = 128.4148

EPHEMERIS_TYPE = 0
CLASSIFICATION_TYPE = U
NORAD_CAT_ID   = 67338
ELEMENT_SET_NO = 999
REV_AT_EPOCH   = 465
BSTAR          = -.33332425E-1
MEAN_MOTION_DOT = -.2094515E-1
MEAN_MOTION_DDOT = 0

CCSDS_OMM_VERS = 2.0
CREATION_DATE  = 
ORIGINATOR     = 

OBJECT_NAME    = STARLINK-36451
OBJECT_ID      = 2026-003F
CENTER_NAME    = EARTH
REF_FRAME      = TEME
TIME_SYSTEM    = UTC
MEAN_ELEMENT_THEORY = SGP/SGP4

EPOCH          = 2026-01-31T06:00:02.999808
MEAN_MOTION    = 15.55690702
ECCENTRICITY   = .00012756
INCLINATION    = 43.0001
RA_OF_ASC_NODE = 80.5201
ARG_OF_PERICENTER = 277.7328
MEAN_ANOMALY   = 126.1996

EPHEMERIS_TYPE = 0
CLASSIFICATION_TYPE = U
NORAD_CAT_ID   = 67339
ELEMENT_SET_NO = 999
REV_AT_EPOCH   = 465
BSTAR          = -.33399817E-1
MEAN_MOTION_DOT = -.2098638E-1
MEAN_MOTION_DDOT = 0

