STARLINK-36489          
1 67328U 26002Z   26031.25003472 -.00047914  00000+0 -81551-3 0  9990
2 67328  42.9992 177.9281 0001612 266.2856 282.6704 15.50591991  5552
STARLINK-36496          
1 67329U 26002AA  26031.25003472  .00065934  00000+0  11224-2 0  9990
2 67329  42.9993 177.9171 0002223 273.6944 279.1219 15.50523238  5383
STARLINK-36483          
1 67330U 26002AB  26031.25003472  .00080980  00000+0  13750-2 0  9996
2 67330  42.9994 177.9081 0001672 264.0450 292.6077 15.50515602  5556
STARLINK-36494          
1 67331U 26002AC  26031.25003472  .00068480  00000+0  11642-2 0  9996
2 67331  42.9994 177.9221 0002279 279.9971 270.7876 15.50548031  5556
STARLINK-36492          
1 67332U 26002AD  26031.25003472  .00078132  00000+0  13273-2 0  9994
2 67332  42.9992 177.9133 0001598 265.3780 289.3625 15.50515908  5552
STARLINK-36427          
1 67333U 26002AE  26031.25003472  .00049723  00000+0  11906-2 0  9990
2 67333  43.0004 178.0794 0001457 282.0817 196.5239 15.40680006  5466
STARLINK-35343          
1 67334U 26003A   26031.25003472 -.02098785  00000+0 -33401-1 0  9991
2 67334  42.9997  80.5447 0001258 276.6699 117.6751 15.55691876  4593
STARLINK-36486          
1 67335U 26003B   26031.25003472 -.02093853  00000+0 -33318-1 0  9990
2 67335  42.9994  80.5398 0001345 279.1709 117.0947 15.55686906  4659
STARLINK-36480          
1 67336U 26003C   26031.25003472 -.02098576  00000+0 -33400-1 0  9990
2 67336  42.9997  80.5352 0001259 277.5674 120.6152 15.55689743  4650
STARLINK-36410          
1 67337U 26003D   26031.25003472 -.02099546  00000+0 -33415-1 0  9995
2 67337  43.0000  80.5303 0001296 276.5122 123.5857 15.55691455  4659
STARLINK-36413          
1 67338U 26003E   26031.25003472 -.02094515  00000+0 -33332-1 0  9995
2 67338  42.9999  80.5252 0001232 273.6054 128.4148 15.55686013  4651
STARLINK-36451          
1 67339U 26003F   26031.25003472 -.02098638  00000+0 -33400-1 0  9992
2 67339  43.0001  80.5201 0001275 277.7328 126.1996 15.55690702  4654
